[
    {
        "CCSDS_OMM_VERS": "3.0",
        "COMMENT": "GENERATED VIA SPACE-TRACK.ORG API",
        "CREATION_DATE": "2025-03-02T18:08:23",
        "ORIGINATOR": "18 SPCS",
        "OBJECT_NAME": "COSMOS 2544 (GLONASS)",
        "OBJECT_ID": "2019-088A",
        "CENTER_NAME": "EARTH",
        "REF_FRAME": "TEME",
        "TIME_SYSTEM": "UTC",
        "MEAN_ELEMENT_THEORY": "SGP4",
        "EPOCH": "2025-03-02T10:07:21.500832",
        "MEAN_MOTION": "2.13101985",
        "ECCENTRICITY": "0.00156010",
        "INCLINATION": "65.3090",
        "RA_OF_ASC_NODE": "89.5053",
        "ARG_OF_PERICENTER": "259.6153",
        "MEAN_ANOMALY": "100.2740",
        "EPHEMERIS_TYPE": "0",
        "CLASSIFICATION_TYPE": "U",
        "NORAD_CAT_ID": "44850",
        "ELEMENT_SET_NO": "999",
        "REV_AT_EPOCH": "4066",
        "BSTAR": "0.00000000000000",
        "MEAN_MOTION_DOT": "0.00000037",
        "MEAN_MOTION_DDOT": "0.0000000000000",
        "SEMIMAJOR_AXIS": "25508.026",
        "PERIOD": "675.733",
        "APOAPSIS": "19169.686",
        "PERIAPSIS": "19090.096",
        "OBJECT_TYPE": "PAYLOAD",
        "RCS_SIZE": "LARGE",
        "COUNTRY_CODE": "CIS",
        "LAUNCH_DATE": "2019-12-11",
        "SITE": "PKMTR",
        "DECAY_DATE": null,
        "FILE": "4657142",
        "GP_ID": "282087467",
        "TLE_LINE0": "0 COSMOS 2544 (GLONASS)",
        "TLE_LINE1": "1 44850U 19088A   25061.42177663  .00000037  00000-0  00000-0 0  9997",
        "TLE_LINE2": "2 44850  65.3090  89.5053 0015601 259.6153 100.2740  2.13101985 40660"
    }
]